1 43893U 18111T   21053.14190284  .00003644  00000-0  13883-3 0  9992
2 43893  97.2472 311.9180 0021560 348.4016  11.6724 15.27128901120115
1 43893U 18111T   21053.66609296  .00007743  00000-0  29166-3 0  9992
2 43893  97.2470 312.4271 0021467 346.7246  13.3426 15.27146993120199
1 43893U 18111T   21054.45237384  .00007231  00000-0  27250-3 0  9999
2 43893  97.2472 313.1907 0021351 343.8613  16.1944 15.27158807120310
1 43893U 18111T   21054.58341995  .00007247  00000-0  27308-3 0  9998
2 43893  97.2472 313.3180 0021343 343.3583  16.6953 15.27161110120335
1 43893U 18111T   21055.17312506  .00007793  00000-0  29334-3 0  9997
2 43893  97.2473 313.8907 0021258 341.2374  18.8080 15.27172190120423
1 43893U 18111T   21055.50073782  .00007164  00000-0  26987-3 0  9997
2 43893  97.2474 314.2090 0021229 340.0567  19.9840 15.27176015120472
1 43893U 18111T   21056.48356855  .00008524  00000-0  32039-3 0  9996
2 43893  97.2474 315.1637 0021093 336.4681  23.5591 15.27194030120622
1 43893U 18111T   21056.94221941  .00008525  00000-0  32035-3 0  9991
2 43893  97.2474 315.6092 0021029 334.8077  25.2135 15.27201689120691
1 43893U 18111T   21057.13878316  .00008708  00000-0  32713-3 0  9993
2 43893  97.2473 315.8002 0020995 334.0858  25.9328 15.27205670120722
1 43893U 18111T   21057.66295158  .00008159  00000-0  30663-3 0  9990
2 43893  97.2472 316.3094 0020939 332.1564  27.8553 15.27213519120800
1 43893U 18111T   21058.44919951  .00006886  00000-0  25919-3 0  9994
2 43893  97.2468 317.0732 0020877 329.3830  30.6189 15.27223580120926
1 43893U 18111T   21058.71128138  .00005801  00000-0  21881-3 0  9993
2 43893  97.2467 317.3278 0020857 328.4205  31.5782 15.27225420120965
1 43893U 18111T   21059.23544305  .00005328  00000-0  20115-3 0  9992
2 43893  97.2466 317.8368 0020807 326.5420  33.4504 15.27231371121047
1 43893U 18111T   21059.95616301  .00004402  00000-0  16668-3 0  9997
2 43893  97.2465 318.5368 0020730 323.9044  36.0795 15.27237215121158
1 43893U 18111T   21060.15272248  .00004649  00000-0  17587-3 0  9993
2 43893  97.2461 318.7278 0020703 323.1694  36.8122 15.27239355121181
1 43893U 18111T   21060.48032028  .00005413  00000-0  20428-3 0  9997
2 43893  97.2461 319.0461 0020635 321.9447  38.0334 15.27244577121232
1 43893U 18111T   21060.93895547  .00006734  00000-0  25335-3 0  9999
2 43893  97.2459 319.4917 0020583 320.2535  39.7196 15.27252756121301
1 43893U 18111T   21061.59414690  .00006117  00000-0  23038-3 0  9991
2 43893  97.2457 320.1280 0020510 317.8084  42.1576 15.27259208121402
1 43893U 18111T   21062.11829862  .00005208  00000-0  19655-3 0  9991
2 43893  97.2455 320.6371 0020482 315.8547  44.1057 15.27262761121488
1 43893U 18111T   21062.44589252  .00005012  00000-0  18923-3 0  9993
2 43893  97.2454 320.9553 0020451 314.5870  45.3699 15.27265533121534
1 43893U 18111T   21062.57693029  .00005114  00000-0  19303-3 0  9991
2 43893  97.2454 321.0825 0020451 314.1344  45.8212 15.27266653121552
1 43893U 18111T   21063.16659895  .00003810  00000-0  14452-3 0  9991
2 43893  97.2453 321.6551 0020406 311.9275  48.0224 15.27268170121645
1 43893U 18111T   21063.42867357  .00003446  00000-0  13097-3 0  9993
2 43893  97.2452 321.9098 0020400 310.9161  49.0311 15.27268781121680
1 43893U 18111T   21063.95282282  .00002475  00000-0  94829-4 0  9993
2 43893  97.2453 322.4188 0020302 309.0714  50.8719 15.27269180121766
1 43893U 18111T   21064.47697093  .00002514  00000-0  96292-4 0  9991
2 43893  97.2454 322.9277 0020313 306.9865  52.9515 15.27271458121843
1 43893U 18111T   21064.67352656  .00002006  00000-0  77377-4 0  9995
2 43893  97.2452 323.1185 0020287 306.2697  53.6668 15.27270889121875
1 43893U 18111T   21065.52526561  .00001858  00000-0  71861-4 0  9994
2 43893  97.2453 323.9457 0020222 303.0257  56.9039 15.27274065122006
1 43893U 18111T   21065.65630226  .00001816  00000-0  70295-4 0  9996
2 43893  97.2453 324.0729 0020218 302.5288  57.3998 15.27274484122029
1 43893U 18111T   21066.18044845  .00001811  00000-0  70110-4 0  9992
2 43893  97.2453 324.5820 0020178 300.5313  59.3935 15.27276533122107
1 43893U 18111T   21066.44252128  .00001874  00000-0  72480-4 0  9997
2 43893  97.2453 324.8365 0020159 299.5354  60.3875 15.27277631122144
1 43893U 18111T   21066.96666681  .00001782  00000-0  69024-4 0  9995
2 43893  97.2454 325.3455 0020128 297.5348  62.3846 15.27279152122227
1 43893U 18111T   21067.49081160  .00001740  00000-0  67466-4 0  9999
2 43893  97.2454 325.8545 0020102 295.5151  64.4010 15.27280882122301
1 43893U 18111T   21067.68736569  .00001794  00000-0  69490-4 0  9998
2 43893  97.2454 326.0454 0020094 294.7601  65.1547 15.27281830122334
1 43893U 18111T   21068.27702745  .00001798  00000-0  69633-4 0  9996
2 43893  97.2452 326.6182 0020105 292.5479  67.3633 15.27284028122420
1 43893U 18111T   21068.67013423  .00001902  00000-0  73483-4 0  9993
2 43893  97.2452 327.0000 0020092 291.0865  68.8226 15.27286271122484
1 43893U 18111T   21069.52186433  .00002233  00000-0  85815-4 0  9990
2 43893  97.2454 327.8269 0019979 287.7414  72.1645 15.27291058122612
1 43893U 18111T   21069.71841604  .00002668  00000-0  10196-3 0  9990
2 43893  97.2457 328.0180 0020004 286.9442  72.9605 15.27293933122644
1 43893U 18111T   21070.43910625  .00003731  00000-0  14146-3 0  9992
2 43893  97.2456 328.7179 0019965 284.2056  75.6966 15.27301781122757
1 43893U 18111T   21070.70117383  .00004291  00000-0  16226-3 0  9995
2 43893  97.2456 328.9726 0019965 283.1557  76.7454 15.27305729122795
1 43893U 18111T   21071.15979240  .00004252  00000-0  16081-3 0  9999
2 43893  97.2456 329.4180 0019917 281.3927  78.5075 15.27309811122866
1 43893U 18111T   21071.22530899  .00004558  00000-0  17216-3 0  9990
2 43893  97.2455 329.4817 0019909 281.1303  78.7698 15.27311293122870
1 43893U 18111T   21071.68392546  .00005501  00000-0  20719-3 0  9996
2 43893  97.2454 329.9272 0019881 279.4725  80.4267 15.27318155122940
1 43893U 18111T   21072.47012009  .00007338  00000-0  27531-3 0  9996
2 43893  97.2452 330.6908 0019818 276.3751  83.5231 15.27331032123066
1 43893U 18111T   21072.66666753  .00008086  00000-0  30301-3 0  9998
2 43893  97.2453 330.8816 0019804 275.6501  84.2480 15.27335624123095
1 43893U 18111T   21073.51836797  .00010185  00000-0  38067-3 0  9990
2 43893  97.2448 331.7089 0019791 272.3325  87.5648 15.27353553123222
1 43893U 18111T   21074.43557265  .00009215  00000-0  34452-3 0  9998
2 43893  97.2445 332.5999 0019766 268.7811  91.1165 15.27370956123365
1 43893U 18111T   21074.69762966  .00008438  00000-0  31571-3 0  9997
2 43893  97.2444 332.8544 0019764 267.7646  92.1331 15.27374739123400
1 43893U 18111T   21075.22174152  .00006623  00000-0  24838-3 0  9993
2 43893  97.2442 333.3634 0019743 265.7163  94.1820 15.27380903123486
1 43893U 18111T   21075.94239269  .00005566  00000-0  20917-3 0  9992
2 43893  97.2440 334.0633 0019732 262.8985  97.0011 15.27388032123596
1 43893U 18111T   21076.13893340  .00005474  00000-0  20575-3 0  9998
2 43893  97.2440 334.2542 0019750 262.1567  97.7430 15.27390072123629
1 43893U 18111T   21076.53201495  .00004486  00000-0  16911-3 0  9997
2 43893  97.2437 334.6359 0019752 260.6359  99.2648 15.27391122123680
1 43893U 18111T   21076.59752845  .00004610  00000-0  17368-3 0  9999
2 43893  97.2437 334.6995 0019742 260.3935  99.5074 15.27392131123690
1 43893U 18111T   21077.44920410  .00003680  00000-0  13921-3 0  9996
2 43893  97.2437 335.5267 0019774 257.0954 102.8077 15.27395062123823
1 43893U 18111T   21077.71125826  .00002805  00000-0  10675-3 0  9995
2 43893  97.2435 335.7811 0019762 256.0698 103.8343 15.27394076123864
1 43893U 18111T   21078.49741916  .00002777  00000-0  10572-3 0  9999
2 43893  97.2435 336.5442 0019759 253.0888 106.8186 15.27397196123984
1 43893U 18111T   21078.69395910  .00002807  00000-0  10681-3 0  9995
2 43893  97.2434 336.7350 0019748 252.2452 107.6632 15.27398122124019
1 43893U 18111T   21079.15255253  .00001585  00000-0  61488-4 0  9996
2 43893  97.2434 337.1807 0019774 250.5084 109.4020 15.27395906124087
1 43893U 18111T   21079.21806602  .00001643  00000-0  63656-4 0  9997
2 43893  97.2437 337.2441 0019798 250.4226 109.4876 15.27396219124096
1 43893U 18111T   21079.61114443  .00001889  00000-0  72768-4 0  9992
2 43893  97.2436 337.6259 0019807 248.9127 110.9995 15.27399242124154
1 43893U 18111T   21080.20076185  .00001948  00000-0  74934-4 0  9992
2 43893  97.2436 338.1985 0019824 246.6382 113.2773 15.27401923124243
1 43893U 18111T   21081.24896775  .00002320  00000-0  88733-4 0  9999
2 43893  97.2434 339.2164 0019868 242.6071 117.3148 15.27408284124407
1 43893U 18111T   21081.64204484  .00002222  00000-0  85084-4 0  9990
2 43893  97.2434 339.5981 0019901 241.0871 118.8372 15.27409242124462
1 43893U 18111T   21082.16614692  .00002116  00000-0  81142-4 0  9997
2 43893  97.2434 340.1071 0019918 239.0682 120.8600 15.27410746124542
1 43893U 18111T   21082.69024818  .00002306  00000-0  88184-4 0  9994
2 43893  97.2435 340.6159 0019935 236.9203 123.0122 15.27413702124627
1 43893U 18111T   21083.14883496  .00002407  00000-0  91908-4 0  9990
2 43893  97.2436 341.0612 0019954 235.1690 124.7673 15.27416698124692
1 43893U 18111T   21083.67293269  .00002614  00000-0  99562-4 0  9995
2 43893  97.2433 341.5700 0019959 233.2041 126.7367 15.27420620124777
1 43893U 18111T   21084.13151930  .00002344  00000-0  89564-4 0  9996
2 43893  97.2437 342.0157 0019985 231.4154 128.5296 15.27421663124844
1 43893U 18111T   21084.45907984  .00002635  00000-0  10033-3 0  9996
2 43893  97.2438 342.3339 0020000 230.2010 129.7469 15.27424247124899
1 43893U 18111T   21085.50727151  .00008602  00000-0  32086-3 0  9991
2 43893  97.2410 343.3504 0020169 227.2571 132.8589 15.27462283125057
1 43893U 18111T   21085.96581516  .00009145  00000-0  34084-3 0  9997
2 43893  97.2439 343.7970 0020091 224.2165 135.7469 15.27471279125121
1 43893U 18111T   21086.48989528  .00008035  00000-0  29976-3 0  9991
2 43893  97.2438 344.3060 0020132 222.2245 137.7446 15.27477848125204
